ONEWEB-0504             
1 54122U 22138K   26193.22362478  .00000033  00000+0  50236-4 0  9990
2 54122  87.9195 299.9811 0001839 108.2903 251.8430 13.19726808180139
ONEWEB-0505             
1 54123U 22138L   26193.22044642 -.00000025  00000+0 -95554-4 0  9996
2 54123  87.9190 299.9832 0001858 115.2532 244.8793 13.19727661180115
ONEWEB-0506             
1 54124U 22138M   26193.27102022  .00000026  00000+0  32891-4 0  9993
2 54124  87.9193 299.9706 0001972 109.3410 250.7936 13.19725358180111
ONEWEB-0507             
1 54125U 22138N   26192.83664084 -.00000045  00000+0 -14451-3 0  9990
2 54125  87.9186 300.0668 0002008 105.7694 254.3661 13.19726391180102
ONEWEB-0508             
1 54126U 22138P   26193.28838676 -.00000023  00000+0 -88794-4 0  9999
2 54126  87.9180 299.9773 0002138 115.3940 244.7414 13.19725362180145
ONEWEB-0509             
1 54127U 22138Q   26192.80820234  .00000060  00000+0  11761-3 0  9996
2 54127  87.9195 300.0642 0001997 102.3575 257.7781 13.19724496180051
ONEWEB-0510             
1 54128U 22138R   26192.75295978  .00000049  00000+0  88326-4 0  9991
2 54128  87.9184 269.5409 0002039  85.4324 274.7042 13.20770293182522
ONEWEB-0511             
1 54129U 22138S   26193.25993510  .00000017  00000+0  10514-4 0  9994
2 54129  87.9190 299.9760 0001686 102.0745 258.0577 13.19723364180146
ONEWEB-0512             
1 54130U 22138T   26193.25204159  .00000736  00000+0  18065-2 0  9995
2 54130  87.9201 299.9812 0002367  99.2957 260.8443 13.19731321180110
ONEWEB-0513             
1 54131U 22138U   26193.24735598 -.00000005  00000+0 -44103-4 0  9996
2 54131  87.9196 299.9222 0001447 124.9686 235.1583 13.20269214180021
ONEWEB-0514             
1 54132U 22138V   26193.26784632  .00000048  00000+0  87440-4 0  9998
2 54132  87.9193 299.9737 0001941  99.2808 260.8544 13.19726404180130
ONEWEB-0515             
1 54133U 22138W   26192.73951415 -.00000114  00000+0 -31199-3 0  9990
2 54133  87.9192 269.5394 0002878  89.0696 271.0767 13.20771018182545
ONEWEB-0516             
1 54134U 22138X   26193.24256314  .00000096  00000+0  20721-3 0  9990
2 54134  87.9186 299.9829 0002111 103.6453 256.4915 13.19723865180133
ONEWEB-0517             
1 54135U 22138Y   26192.84296130 -.00000075  00000+0 -22006-3 0  9993
2 54135  87.9192 300.0567 0001691  93.5963 266.5363 13.19726275180080
ONEWEB-0518             
1 54136U 22138Z   26193.24099030  .00000123  00000+0  27510-3 0  9996
2 54136  87.9194 299.9832 0002269 102.1821 257.9566 13.19724297180133
ONEWEB-0519             
1 54137U 22138AA  26192.81135060 -.00000203  00000+0 -53845-3 0  9994
2 54137  87.9191 300.0641 0001835  96.4643 263.6698 13.19725535180088
