{"fetched_at":"2026-07-12T17:32:24.168Z","source":"https://celestrak.org/NORAD/elements/gp.php?GROUP=oneweb&FORMAT=JSON","constellation":"oneweb","records":[{"OBJECT_NAME":"ONEWEB-0504","OBJECT_ID":"2022-138K","EPOCH":"2026-07-12T05:22:01.180992","CLASSIFICATION_TYPE":"U","MEAN_MOTION":13.19726808,"ECCENTRICITY":0.0001839,"INCLINATION":87.9195,"RA_OF_ASC_NODE":299.9811,"ARG_OF_PERICENTER":108.2903,"MEAN_ANOMALY":251.843,"EPHEMERIS_TYPE":0,"NORAD_CAT_ID":54122,"ELEMENT_SET_NO":999,"REV_AT_EPOCH":18013,"BSTAR":0.000050236,"MEAN_MOTION_DOT":3.3e-7,"MEAN_MOTION_DDOT":0},{"OBJECT_NAME":"ONEWEB-0505","OBJECT_ID":"2022-138L","EPOCH":"2026-07-12T05:17:26.570688","CLASSIFICATION_TYPE":"U","MEAN_MOTION":13.19727661,"ECCENTRICITY":0.0001858,"INCLINATION":87.919,"RA_OF_ASC_NODE":299.9832,"ARG_OF_PERICENTER":115.2532,"MEAN_ANOMALY":244.8793,"EPHEMERIS_TYPE":0,"NORAD_CAT_ID":54123,"ELEMENT_SET_NO":999,"REV_AT_EPOCH":18011,"BSTAR":-0.000095554,"MEAN_MOTION_DOT":-2.5e-7,"MEAN_MOTION_DDOT":0},{"OBJECT_NAME":"ONEWEB-0506","OBJECT_ID":"2022-138M","EPOCH":"2026-07-12T06:30:16.147008","CLASSIFICATION_TYPE":"U","MEAN_MOTION":13.19725358,"ECCENTRICITY":0.0001972,"INCLINATION":87.9193,"RA_OF_ASC_NODE":299.9706,"ARG_OF_PERICENTER":109.341,"MEAN_ANOMALY":250.7936,"EPHEMERIS_TYPE":0,"NORAD_CAT_ID":54124,"ELEMENT_SET_NO":999,"REV_AT_EPOCH":18011,"BSTAR":0.000032891,"MEAN_MOTION_DOT":2.6e-7,"MEAN_MOTION_DDOT":0},{"OBJECT_NAME":"ONEWEB-0507","OBJECT_ID":"2022-138N","EPOCH":"2026-07-11T20:04:45.768576","CLASSIFICATION_TYPE":"U","MEAN_MOTION":13.19726391,"ECCENTRICITY":0.00020089,"INCLINATION":87.9186,"RA_OF_ASC_NODE":300.0668,"ARG_OF_PERICENTER":105.7694,"MEAN_ANOMALY":254.3661,"EPHEMERIS_TYPE":0,"NORAD_CAT_ID":54125,"ELEMENT_SET_NO":999,"REV_AT_EPOCH":18010,"BSTAR":-0.00014450712,"MEAN_MOTION_DOT":-4.5e-7,"MEAN_MOTION_DDOT":0},{"OBJECT_NAME":"ONEWEB-0508","OBJECT_ID":"2022-138P","EPOCH":"2026-07-12T06:55:16.616064","CLASSIFICATION_TYPE":"U","MEAN_MOTION":13.19725362,"ECCENTRICITY":0.0002138,"INCLINATION":87.918,"RA_OF_ASC_NODE":299.9773,"ARG_OF_PERICENTER":115.394,"MEAN_ANOMALY":244.7414,"EPHEMERIS_TYPE":0,"NORAD_CAT_ID":54126,"ELEMENT_SET_NO":999,"REV_AT_EPOCH":18014,"BSTAR":-0.000088794,"MEAN_MOTION_DOT":-2.3e-7,"MEAN_MOTION_DDOT":0},{"OBJECT_NAME":"ONEWEB-0509","OBJECT_ID":"2022-138Q","EPOCH":"2026-07-11T19:23:48.682176","CLASSIFICATION_TYPE":"U","MEAN_MOTION":13.19724496,"ECCENTRICITY":0.00019974,"INCLINATION":87.9195,"RA_OF_ASC_NODE":300.0642,"ARG_OF_PERICENTER":102.3575,"MEAN_ANOMALY":257.7781,"EPHEMERIS_TYPE":0,"NORAD_CAT_ID":54127,"ELEMENT_SET_NO":999,"REV_AT_EPOCH":18005,"BSTAR":0.00011761342,"MEAN_MOTION_DOT":6e-7,"MEAN_MOTION_DDOT":0},{"OBJECT_NAME":"ONEWEB-0510","OBJECT_ID":"2022-138R","EPOCH":"2026-07-11T18:04:15.724992","CLASSIFICATION_TYPE":"U","MEAN_MOTION":13.20770293,"ECCENTRICITY":0.00020394,"INCLINATION":87.9184,"RA_OF_ASC_NODE":269.5409,"ARG_OF_PERICENTER":85.4324,"MEAN_ANOMALY":274.7042,"EPHEMERIS_TYPE":0,"NORAD_CAT_ID":54128,"ELEMENT_SET_NO":999,"REV_AT_EPOCH":18252,"BSTAR":0.000088326213,"MEAN_MOTION_DOT":4.9e-7,"MEAN_MOTION_DDOT":0},{"OBJECT_NAME":"ONEWEB-0511","OBJECT_ID":"2022-138S","EPOCH":"2026-07-12T06:14:18.392640","CLASSIFICATION_TYPE":"U","MEAN_MOTION":13.19723364,"ECCENTRICITY":0.0001686,"INCLINATION":87.919,"RA_OF_ASC_NODE":299.976,"ARG_OF_PERICENTER":102.0745,"MEAN_ANOMALY":258.0577,"EPHEMERIS_TYPE":0,"NORAD_CAT_ID":54129,"ELEMENT_SET_NO":999,"REV_AT_EPOCH":18014,"BSTAR":0.000010514,"MEAN_MOTION_DOT":1.7e-7,"MEAN_MOTION_DDOT":0},{"OBJECT_NAME":"ONEWEB-0512","OBJECT_ID":"2022-138T","EPOCH":"2026-07-12T06:02:56.393376","CLASSIFICATION_TYPE":"U","MEAN_MOTION":13.19731321,"ECCENTRICITY":0.0002367,"INCLINATION":87.9201,"RA_OF_ASC_NODE":299.9812,"ARG_OF_PERICENTER":99.2957,"MEAN_ANOMALY":260.8443,"EPHEMERIS_TYPE":0,"NORAD_CAT_ID":54130,"ELEMENT_SET_NO":999,"REV_AT_EPOCH":18011,"BSTAR":0.0018065,"MEAN_MOTION_DOT":0.00000736,"MEAN_MOTION_DDOT":0},{"OBJECT_NAME":"ONEWEB-0513","OBJECT_ID":"2022-138U","EPOCH":"2026-07-12T05:56:11.556672","CLASSIFICATION_TYPE":"U","MEAN_MOTION":13.20269214,"ECCENTRICITY":0.0001447,"INCLINATION":87.9196,"RA_OF_ASC_NODE":299.9222,"ARG_OF_PERICENTER":124.9686,"MEAN_ANOMALY":235.1583,"EPHEMERIS_TYPE":0,"NORAD_CAT_ID":54131,"ELEMENT_SET_NO":999,"REV_AT_EPOCH":18002,"BSTAR":-0.000044103,"MEAN_MOTION_DOT":-5e-8,"MEAN_MOTION_DDOT":0},{"OBJECT_NAME":"ONEWEB-0514","OBJECT_ID":"2022-138V","EPOCH":"2026-07-12T06:25:41.922048","CLASSIFICATION_TYPE":"U","MEAN_MOTION":13.19726404,"ECCENTRICITY":0.0001941,"INCLINATION":87.9193,"RA_OF_ASC_NODE":299.9737,"ARG_OF_PERICENTER":99.2808,"MEAN_ANOMALY":260.8544,"EPHEMERIS_TYPE":0,"NORAD_CAT_ID":54132,"ELEMENT_SET_NO":999,"REV_AT_EPOCH":18013,"BSTAR":0.00008744,"MEAN_MOTION_DOT":4.8e-7,"MEAN_MOTION_DDOT":0},{"OBJECT_NAME":"ONEWEB-0515","OBJECT_ID":"2022-138W","EPOCH":"2026-07-11T17:44:54.022560","CLASSIFICATION_TYPE":"U","MEAN_MOTION":13.20771018,"ECCENTRICITY":0.00028788,"INCLINATION":87.9192,"RA_OF_ASC_NODE":269.5394,"ARG_OF_PERICENTER":89.0696,"MEAN_ANOMALY":271.0767,"EPHEMERIS_TYPE":0,"NORAD_CAT_ID":54133,"ELEMENT_SET_NO":999,"REV_AT_EPOCH":18254,"BSTAR":-0.00031199091,"MEAN_MOTION_DOT":-0.00000114,"MEAN_MOTION_DDOT":0},{"OBJECT_NAME":"ONEWEB-0516","OBJECT_ID":"2022-138X","EPOCH":"2026-07-12T05:49:17.455296","CLASSIFICATION_TYPE":"U","MEAN_MOTION":13.19723865,"ECCENTRICITY":0.0002111,"INCLINATION":87.9186,"RA_OF_ASC_NODE":299.9829,"ARG_OF_PERICENTER":103.6453,"MEAN_ANOMALY":256.4915,"EPHEMERIS_TYPE":0,"NORAD_CAT_ID":54134,"ELEMENT_SET_NO":999,"REV_AT_EPOCH":18013,"BSTAR":0.00020721,"MEAN_MOTION_DOT":9.6e-7,"MEAN_MOTION_DDOT":0},{"OBJECT_NAME":"ONEWEB-0517","OBJECT_ID":"2022-138Y","EPOCH":"2026-07-11T20:13:51.856320","CLASSIFICATION_TYPE":"U","MEAN_MOTION":13.19726275,"ECCENTRICITY":0.00016919,"INCLINATION":87.9192,"RA_OF_ASC_NODE":300.0567,"ARG_OF_PERICENTER":93.5963,"MEAN_ANOMALY":266.5363,"EPHEMERIS_TYPE":0,"NORAD_CAT_ID":54135,"ELEMENT_SET_NO":999,"REV_AT_EPOCH":18008,"BSTAR":-0.00022006458,"MEAN_MOTION_DOT":-7.5e-7,"MEAN_MOTION_DDOT":0},{"OBJECT_NAME":"ONEWEB-0518","OBJECT_ID":"2022-138Z","EPOCH":"2026-07-12T05:47:01.561920","CLASSIFICATION_TYPE":"U","MEAN_MOTION":13.19724297,"ECCENTRICITY":0.0002269,"INCLINATION":87.9194,"RA_OF_ASC_NODE":299.9832,"ARG_OF_PERICENTER":102.1821,"MEAN_ANOMALY":257.9566,"EPHEMERIS_TYPE":0,"NORAD_CAT_ID":54136,"ELEMENT_SET_NO":999,"REV_AT_EPOCH":18013,"BSTAR":0.0002751,"MEAN_MOTION_DOT":0.00000123,"MEAN_MOTION_DDOT":0},{"OBJECT_NAME":"ONEWEB-0519","OBJECT_ID":"2022-138AA","EPOCH":"2026-07-11T19:28:20.691840","CLASSIFICATION_TYPE":"U","MEAN_MOTION":13.19725535,"ECCENTRICITY":0.00018352,"INCLINATION":87.9191,"RA_OF_ASC_NODE":300.0641,"ARG_OF_PERICENTER":96.4643,"MEAN_ANOMALY":263.6698,"EPHEMERIS_TYPE":0,"NORAD_CAT_ID":54137,"ELEMENT_SET_NO":999,"REV_AT_EPOCH":18008,"BSTAR":-0.00053845308,"MEAN_MOTION_DOT":-0.00000203,"MEAN_MOTION_DDOT":0}]}
